OBJECT_NAME,OBJECT_ID,EPOCH,MEAN_MOTION,ECCENTRICITY,INCLINATION,RA_OF_ASC_NODE,ARG_OF_PERICENTER,MEAN_ANOMALY,EPHEMERIS_TYPE,CLASSIFICATION_TYPE,NORAD_CAT_ID,ELEMENT_SET_NO,REV_AT_EPOCH,BSTAR,MEAN_MOTION_DOT,MEAN_MOTION_DDOT
KUIPER-00603,2026-118W,2026-06-16T13:03:07.799328,15.37569198,.00054591,51.8683,56.3702,157.5735,202.5491,0,U,69287,999,388,.58735551E-3,.21671E-3,0
KUIPER-00605,2026-118X,2026-06-16T13:11:03.173856,15.37043033,.00074907,51.8674,56.4037,165.0538,195.0672,0,U,69288,999,388,.56831702E-3,.20602E-3,0
KUIPER-00606,2026-118Y,2026-06-16T12:59:29.145120,15.37692113,.00047135,51.8706,56.3541,150.4659,209.6595,0,U,69289,999,388,.25764087E-3,.9306E-4,0
KUIPER-00607,2026-118Z,2026-06-16T13:04:44.393664,15.37445927,.00059706,51.8697,56.3781,160.3718,199.7499,0,U,69290,999,388,.78043904E-3,.28838E-3,0
KUIPER-00608,2026-118AA,2026-06-16T13:27:07.522272,15.35249887,.00084462,51.8611,56.4709,175.0232,185.0839,0,U,69291,999,388,.56499671E-3,.19319E-3,0
KUIPER-00610,2026-118AB,2026-06-16T12:50:13.140384,15.38381424,.00027145,51.8730,56.3085,134.4722,225.6488,0,U,69292,999,388,.49164133E-3,.18553E-3,0
KUIPER-00613,2026-118AC,2026-06-16T13:33:39.618432,15.34992005,.00101958,51.8635,56.5021,180.9382,179.1586,0,U,69293,999,388,.43097155E-3,.14519E-3,0
KUIPER-00618,2026-118AD,2026-06-16T12:44:46.646880,15.38635177,.00018035,51.8726,56.2833,88.4923,271.6271,0,U,69294,999,388,.55580377E-3,.2121E-3,0
KUIPER-00620,2026-118AE,2026-06-16T12:49:24.779712,15.38301201,.00029862,51.8724,56.3063,116.6214,243.5079,0,U,69295,999,388,.58150956E-3,.21969E-3,0
STARLINK-37501,2026-119A,2026-06-16T14:00:01.000224,15.67919012,.00013852,97.2841,193.3563,95.5226,226.9951,0,U,69296,999,379,-.2564414E-1,-.2470949E-1,0
STARLINK-37496,2026-119B,2026-06-16T14:00:01.000224,15.66349763,.00015694,97.2837,193.3541,164.6728,153.9396,0,U,69297,999,379,-.29254272E-1,-.2620856E-1,0
STARLINK-37519,2026-119C,2026-06-16T14:00:01.000224,15.67952995,.00008293,97.2841,193.3649,101.3132,241.2585,0,U,69298,999,379,-.26756671E-1,-.2566547E-1,0
STARLINK-37455,2026-119D,2026-06-16T14:00:01.000224,15.57182051,.00020491,97.2845,193.3160,93.3687,127.3822,0,U,69299,999,379,-.39057697E-1,-.2470178E-1,0
STARLINK-37456,2026-119E,2026-06-16T14:00:01.000224,15.66340083,.00013426,97.2837,193.3663,91.5536,255.2552,0,U,69300,999,379,-.2826193E-1,-.254261E-1,0
STARLINK-37630,2026-119F,2026-06-16T14:00:01.000224,15.50554463,.00010448,97.2844,193.2434,109.1795,311.2810,0,U,69301,999,394,-.36270605E-1,-.1833401E-1,0
STARLINK-37804,2026-119G,2026-06-16T14:00:01.000224,15.49170771,.0001292,97.2846,193.2408,93.4549,320.6975,0,U,69302,999,394,.57133904E-3,.31086E-3,0
STARLINK-37730,2026-119H,2026-06-16T14:00:01.000224,15.73098370,.00020585,97.2840,193.3962,99.3631,319.6161,0,U,69303,999,394,-.19625853E-1,-.2316608E-1,0
STARLINK-37731,2026-119J,2026-06-16T14:00:01.000224,15.49186474,.00012528,97.2846,193.2381,70.1769,337.9482,0,U,69304,999,394,.51926375E-3,.2825E-3,0
STARLINK-37734,2026-119K,2026-06-16T14:00:01.000224,15.64750748,.00008491,97.2833,193.3650,92.1389,253.8544,0,U,69305,999,394,-.88737653E-2,-.782619E-2,0
STARLINK-37701,2026-119L,2026-06-16T14:00:01.000224,15.72154846,.0001379,97.2843,193.3942,83.5402,331.4134,0,U,69306,999,394,-.22632909E-1,-.2585958E-1,0
STARLINK-37732,2026-119M,2026-06-16T12:07:19.642944,15.79102102,.00010036,97.2833,193.3266,174.4584,185.6694,0,U,69307,999,393,-.48603542E-2,-.787332E-2,0
STARLINK-37689,2026-119N,2026-06-16T14:00:01.000224,15.49154175,.000075,97.2846,193.2447,65.2796,1.9190,0,U,69308,999,394,.57916761E-3,.31496E-3,0
STARLINK-37619,2026-119P,2026-06-16T14:00:01.000224,15.75905024,.00016544,97.2842,193.4092,86.3741,2.3264,0,U,69309,999,394,-.1935546E-1,-.2540563E-1,0
STARLINK-37794,2026-119Q,2026-06-16T14:00:01.000224,15.62537152,.00014642,97.2845,193.3745,90.2998,267.0997,0,U,69310,999,394,-.31545096E-1,-.2452268E-1,0
STARLINK-37795,2026-119R,2026-06-16T14:00:01.000224,15.49172554,.00006849,97.2845,193.2560,73.2950,19.3289,0,U,69311,999,394,.72011583E-3,.39247E-3,0
STARLINK-37790,2026-119S,2026-06-16T14:00:01.000224,15.70321065,.00013137,97.2849,193.4033,115.7527,320.1705,0,U,69312,999,394,-.24357911E-1,-.257675E-1,0
STARLINK-37676,2026-119T,2026-06-16T14:58:52.697856,15.79522604,.0001213,97.2834,193.4704,166.7040,193.4260,0,U,69313,999,395,-.68762912E-2,-.1114331E-1,0
STARLINK-37617,2026-119U,2026-06-16T14:00:01.000224,15.68384391,.00014513,97.2850,193.4080,81.0341,2.3760,0,U,69314,999,395,-.25583688E-1,-.2507463E-1,0
STARLINK-37627,2026-119V,2026-06-14T18:53:32.152416,15.80230891,.00014259,97.2817,191.5290,72.4250,287.7173,0,U,69315,999,366,-.32968523E-2,-.576083E-2,0
STARLINK-37738,2026-119W,2026-06-16T14:00:01.000224,15.68876419,.00012951,97.2849,193.4040,81.1974,355.1993,0,U,69316,999,395,-.25663762E-1,-.2558972E-1,0
