KUIPER-00603            
1 69287U 26118W   26167.54384027  .00021671  00000+0  58736-3 0  9993
2 69287  51.8683  56.3702 0005459 157.5735 202.5491 15.37569198  3880
KUIPER-00605            
1 69288U 26118X   26167.54934229  .00020602  00000+0  56832-3 0  9997
2 69288  51.8674  56.4037 0007490 165.0538 195.0672 15.37043033  3887
KUIPER-00606            
1 69289U 26118Y   26167.54130955  .00009306  00000+0  25764-3 0  9990
2 69289  51.8706  56.3541 0004713 150.4659 209.6595 15.37692113  3885
KUIPER-00607            
1 69290U 26118Z   26167.54495826  .00028838  00000+0  78044-3 0  9993
2 69290  51.8697  56.3781 0005970 160.3718 199.7499 15.37445927  3885
KUIPER-00608            
1 69291U 26118AA  26167.56050373  .00019319  00000+0  56500-3 0  9997
2 69291  51.8611  56.4709 0008446 175.0232 185.0839 15.35249887  3889
KUIPER-00610            
1 69292U 26118AB  26167.53487431  .00018553  00000+0  49164-3 0  9991
2 69292  51.8730  56.3085 0002714 134.4722 225.6488 15.38381424  3881
KUIPER-00613            
1 69293U 26118AC  26167.56504188  .00014519  00000+0  43097-3 0  9991
2 69293  51.8635  56.5021 0010195 180.9382 179.1586 15.34992005  3889
KUIPER-00618            
1 69294U 26118AD  26167.53109545  .00021210  00000+0  55580-3 0  9993
2 69294  51.8726  56.2833 0001803  88.4923 271.6271 15.38635177  3885
KUIPER-00620            
1 69295U 26118AE  26167.53431458  .00021969  00000+0  58151-3 0  9993
2 69295  51.8724  56.3063 0002986 116.6214 243.5079 15.38301201  3882
STARLINK-37501          
1 69296U 26119A   26167.58334491 -.02470949  00000+0 -25644-1 0  9998
2 69296  97.2841 193.3563 0001385  95.5226 226.9951 15.67919012  3795
STARLINK-37496          
1 69297U 26119B   26167.58334491 -.02620856  00000+0 -29254-1 0  9994
2 69297  97.2837 193.3541 0001569 164.6728 153.9396 15.66349763  3797
STARLINK-37519          
1 69298U 26119C   26167.58334491 -.02566547  00000+0 -26757-1 0  9996
2 69298  97.2841 193.3649 0000829 101.3132 241.2585 15.67952995  3796
STARLINK-37455          
1 69299U 26119D   26167.58334491 -.02470178  00000+0 -39058-1 0  9999
2 69299  97.2845 193.3160 0002049  93.3687 127.3822 15.57182051  3795
STARLINK-37456          
1 69300U 26119E   26167.58334491 -.02542610  00000+0 -28262-1 0  9998
2 69300  97.2837 193.3663 0001342  91.5536 255.2552 15.66340083  3797
STARLINK-37630          
1 69301U 26119F   26167.58334491 -.01833401  00000+0 -36271-1 0  9998
2 69301  97.2844 193.2434 0001044 109.1795 311.2810 15.50554463  3942
STARLINK-37804          
1 69302U 26119G   26167.58334491  .00031086  00000+0  57134-3 0  9998
2 69302  97.2846 193.2408 0001292  93.4549 320.6975 15.49170771  3943
STARLINK-37730          
1 69303U 26119H   26167.58334491 -.02316608  00000+0 -19626-1 0  9991
2 69303  97.2840 193.3962 0002058  99.3631 319.6161 15.73098370  3948
STARLINK-37731          
1 69304U 26119J   26167.58334491  .00028250  00000+0  51926-3 0  9992
2 69304  97.2846 193.2381 0001252  70.1769 337.9482 15.49186474  3948
STARLINK-37734          
1 69305U 26119K   26167.58334491 -.00782619  00000+0 -88738-2 0  9991
2 69305  97.2833 193.3650 0000849  92.1389 253.8544 15.64750748  3941
STARLINK-37701          
1 69306U 26119L   26167.58334491 -.02585958  00000+0 -22633-1 0  9992
2 69306  97.2843 193.3942 0001379  83.5402 331.4134 15.72154846  3940
STARLINK-37732          
1 69307U 26119M   26167.50508846 -.00787332  00000+0 -48604-2 0  9997
2 69307  97.2833 193.3266 0001003 174.4584 185.6694 15.79102102  3938
STARLINK-37689          
1 69308U 26119N   26167.58334491  .00031496  00000+0  57917-3 0  9998
2 69308  97.2846 193.2447 0000750  65.2796   1.9190 15.49154175  3949
STARLINK-37619          
1 69309U 26119P   26167.58334491 -.02540563  00000+0 -19355-1 0  9995
2 69309  97.2842 193.4092 0001654  86.3741   2.3264 15.75905024  3945
STARLINK-37794          
1 69310U 26119Q   26167.58334491 -.02452268  00000+0 -31545-1 0  9996
2 69310  97.2845 193.3745 0001464  90.2998 267.0997 15.62537152  3943
STARLINK-37795          
1 69311U 26119R   26167.58334491  .00039247  00000+0  72012-3 0  9997
2 69311  97.2845 193.2560 0000684  73.2950  19.3289 15.49172554  3948
STARLINK-37790          
1 69312U 26119S   26167.58334491 -.02576750  00000+0 -24358-1 0  9995
2 69312  97.2849 193.4033 0001313 115.7527 320.1705 15.70321065  3945
STARLINK-37676          
1 69313U 26119T   26167.62422104 -.01114331  00000+0 -68763-2 0  9991
2 69313  97.2834 193.4704 0001213 166.7040 193.4260 15.79522604  3959
STARLINK-37617          
1 69314U 26119U   26167.58334491 -.02507463  00000+0 -25584-1 0  9994
2 69314  97.2850 193.4080 0001451  81.0341   2.3760 15.68384391  3952
STARLINK-37627          
1 69315U 26119V   26165.78717769 -.00576083  00000+0 -32969-2 0  9996
2 69315  97.2817 191.5290 0001425  72.4250 287.7173 15.80230891  3666
STARLINK-37738          
1 69316U 26119W   26167.58334491 -.02558972  00000+0 -25664-1 0  9996
2 69316  97.2849 193.4040 0001295  81.1974 355.1993 15.68876419  3951
